[{"OBJECT_NAME":"ONEWEB-0517","OBJECT_ID":"2022-138Y","EPOCH":"2026-03-09T17:32:26.321280","MEAN_MOTION":13.19725911,"ECCENTRICITY":0.00014399,"INCLINATION":87.9233,"RA_OF_ASC_NODE":324.7811,"ARG_OF_PERICENTER":75.5282,"MEAN_ANOMALY":284.6011,"EPHEMERIS_TYPE":0,"CLASSIFICATION_TYPE":"U","NORAD_CAT_ID":54135,"ELEMENT_SET_NO":999,"REV_AT_EPOCH":16371,"BSTAR":-0.00046570127,"MEAN_MOTION_DOT":-1.74e-6,"MEAN_MOTION_DDOT":0},{"OBJECT_NAME":"SL-14 DEB","OBJECT_ID":"1991-056S","EPOCH":"2026-03-09T08:35:20.457888","MEAN_MOTION":13.21714724,"ECCENTRICITY":0.00252218,"INCLINATION":82.5887,"RA_OF_ASC_NODE":214.289,"ARG_OF_PERICENTER":211.1552,"MEAN_ANOMALY":148.8079,"EPHEMERIS_TYPE":0,"CLASSIFICATION_TYPE":"U","NORAD_CAT_ID":45280,"ELEMENT_SET_NO":999,"REV_AT_EPOCH":29192,"BSTAR":0.0034035227,"MEAN_MOTION_DOT":1.418e-5,"MEAN_MOTION_DDOT":0}]
